{
  "type": "FeatureCollection",
  "features": [
    {
      "type": "Feature",
      "properties": {
        "norad_id": 66737,
        "name": "FLOCK 4H-34",
        "group": "last-30-days",
        "lat": -39.86188055709356,
        "lon": -120.44551377083998,
        "alt_km": 516.9750275546303,
        "timestamp": "2025-12-20T03:42:46.120088+00:00",
        "meta_object_name": "FLOCK 4H-34",
        "meta_object_id": "2025-276BZ",
        "meta_epoch": "2025-12-19T20:00:01.999008",
        "meta_mean_motion": 15.18155874,
        "meta_eccentricity": 0.0002369,
        "meta_inclination": 97.4453,
        "meta_ra_of_asc_node": 65.5072,
        "meta_arg_of_pericenter": 174.6746,
        "meta_mean_anomaly": 90.3533,
        "meta_ephemeris_type": 0,
        "meta_classification_type": "U",
        "meta_norad_cat_id": 66737,
        "meta_element_set_no": 999,
        "meta_rev_at_epoch": 262,
        "meta_bstar": -0.0025897,
        "meta_mean_motion_dot": -0.00052539,
        "meta_mean_motion_ddot": 0,
        "tle_line1": "1 66737U 25276BZ  25353.83335647 -.00052539  00000+0 -25897-2 0  9996",
        "tle_line2": "2 66737  97.4453  65.5072 0002369 174.6746  90.3533 15.18155874  2621"
      },
      "geometry": {
        "type": "Point",
        "coordinates": [
          -120.44551377083998,
          -39.86188055709356
        ]
      }
    },
    {
      "type": "Feature",
      "properties": {
        "norad_id": 66738,
        "name": "FLOCK 4H-35",
        "group": "last-30-days",
        "lat": -47.6989025926016,
        "lon": -122.44280708121534,
        "alt_km": 517.7022017070931,
        "timestamp": "2025-12-20T03:42:46.120098+00:00",
        "meta_object_name": "FLOCK 4H-35",
        "meta_object_id": "2025-276CA",
        "meta_epoch": "2025-12-19T20:00:01.999008",
        "meta_mean_motion": 15.18240322,
        "meta_eccentricity": 0.0002318,
        "meta_inclination": 97.4416,
        "meta_ra_of_asc_node": 65.4996,
        "meta_arg_of_pericenter": 155.1354,
        "meta_mean_anomaly": 117.7671,
        "meta_ephemeris_type": 0,
        "meta_classification_type": "U",
        "meta_norad_cat_id": 66738,
        "meta_element_set_no": 999,
        "meta_rev_at_epoch": 262,
        "meta_bstar": -0.0024652,
        "meta_mean_motion_dot": -0.00050152,
        "meta_mean_motion_ddot": 0,
        "tle_line1": "1 66738U 25276CA  25353.83335647 -.00050152  00000+0 -24652-2 0  9994",
        "tle_line2": "2 66738  97.4416  65.4996 0002318 155.1354 117.7671 15.18240322  2628"
      },
      "geometry": {
        "type": "Point",
        "coordinates": [
          -122.44280708121534,
          -47.6989025926016
        ]
      }
    },
    {
      "type": "Feature",
      "properties": {
        "norad_id": 66739,
        "name": "FLOCK 4H-36",
        "group": "last-30-days",
        "lat": -28.346157425583126,
        "lon": -118.22440036121674,
        "alt_km": 516.5172445159051,
        "timestamp": "2025-12-20T03:42:46.120111+00:00",
        "meta_object_name": "FLOCK 4H-36",
        "meta_object_id": "2025-276CB",
        "meta_epoch": "2025-12-19T20:00:01.999008",
        "meta_mean_motion": 15.17989371,
        "meta_eccentricity": 0.0002191,
        "meta_inclination": 97.4464,
        "meta_ra_of_asc_node": 65.5056,
        "meta_arg_of_pericenter": 190.8186,
        "meta_mean_anomaly": 62.7391,
        "meta_ephemeris_type": 0,
        "meta_classification_type": "U",
        "meta_norad_cat_id": 66739,
        "meta_element_set_no": 999,
        "meta_rev_at_epoch": 262,
        "meta_bstar": -0.0025771,
        "meta_mean_motion_dot": -0.00052038,
        "meta_mean_motion_ddot": 0,
        "tle_line1": "1 66739U 25276CB  25353.83335647 -.00052038  00000+0 -25771-2 0  9993",
        "tle_line2": "2 66739  97.4464  65.5056 0002191 190.8186  62.7391 15.17989371  2629"
      },
      "geometry": {
        "type": "Point",
        "coordinates": [
          -118.22440036121674,
          -28.346157425583126
        ]
      }
    },
    {
      "type": "Feature",
      "properties": {
        "norad_id": 66740,
        "name": "TRANSPORTER-15 CC",
        "group": "last-30-days",
        "lat": -5.229358466630488,
        "lon": -114.88146403154613,
        "alt_km": 516.1385148889358,
        "timestamp": "2025-12-20T03:42:46.120122+00:00",
        "meta_object_name": "TRANSPORTER-15 CC",
        "meta_object_id": "2025-276CC",
        "meta_epoch": "2025-12-19T15:49:21.557856",
        "meta_mean_motion": 15.17664329,
        "meta_eccentricity": 0.0001978,
        "meta_inclination": 97.4424,
        "meta_ra_of_asc_node": 65.3171,
        "meta_arg_of_pericenter": 255.7883,
        "meta_mean_anomaly": 104.3131,
        "meta_ephemeris_type": 0,
        "meta_classification_type": "U",
        "meta_norad_cat_id": 66740,
        "meta_element_set_no": 999,
        "meta_rev_at_epoch": 317,
        "meta_bstar": 0.00023136,
        "meta_mean_motion_dot": 4.592e-05,
        "meta_mean_motion_ddot": 0,
        "tle_line1": "1 66740U 25276CC  25353.65927729  .00004592  00000+0  23136-3 0  9997",
        "tle_line2": "2 66740  97.4424  65.3171 0001978 255.7883 104.3131 15.17664329  3179"
      },
      "geometry": {
        "type": "Point",
        "coordinates": [
          -114.88146403154613,
          -5.229358466630488
        ]
      }
    },
    {
      "type": "Feature",
      "properties": {
        "norad_id": 66741,
        "name": "TRANSPORTER-15 CD",
        "group": "last-30-days",
        "lat": -0.797325623342962,
        "lon": -114.30979105114626,
        "alt_km": 515.7385727749952,
        "timestamp": "2025-12-20T03:42:46.120133+00:00",
        "meta_object_name": "TRANSPORTER-15 CD",
        "meta_object_id": "2025-276CD",
        "meta_epoch": "2025-12-19T14:15:31.397760",
        "meta_mean_motion": 15.17518211,
        "meta_eccentricity": 0.0001381,
        "meta_inclination": 97.442,
        "meta_ra_of_asc_node": 65.2436,
        "meta_arg_of_pericenter": 216.7985,
        "meta_mean_anomaly": 143.3154,
        "meta_ephemeris_type": 0,
        "meta_classification_type": "U",
        "meta_norad_cat_id": 66741,
        "meta_element_set_no": 999,
        "meta_rev_at_epoch": 316,
        "meta_bstar": 0.00010486,
        "meta_mean_motion_dot": 2.036e-05,
        "meta_mean_motion_ddot": 0,
        "tle_line1": "1 66741U 25276CD  25353.59411340  .00002036  00000+0  10486-3 0  9993",
        "tle_line2": "2 66741  97.4420  65.2436 0001381 216.7985 143.3154 15.17518211  3162"
      },
      "geometry": {
        "type": "Point",
        "coordinates": [
          -114.30979105114626,
          -0.797325623342962
        ]
      }
    },
    {
      "type": "Feature",
      "properties": {
        "norad_id": 66742,
        "name": "TRANSPORTER-15 CE",
        "group": "last-30-days",
        "lat": -8.341923847176227,
        "lon": -115.30323241439656,
        "alt_km": 516.0849246706948,
        "timestamp": "2025-12-20T03:42:46.120143+00:00",
        "meta_object_name": "TRANSPORTER-15 CE",
        "meta_object_id": "2025-276CE",
        "meta_epoch": "2025-12-19T15:48:32.372064",
        "meta_mean_motion": 15.17663919,
        "meta_eccentricity": 0.0001364,
        "meta_inclination": 97.4416,
        "meta_ra_of_asc_node": 65.3075,
        "meta_arg_of_pericenter": 204.1741,
        "meta_mean_anomaly": 155.9429,
        "meta_ephemeris_type": 0,
        "meta_classification_type": "U",
        "meta_norad_cat_id": 66742,
        "meta_element_set_no": 999,
        "meta_rev_at_epoch": 317,
        "meta_bstar": 0.00017579,
        "meta_mean_motion_dot": 3.473e-05,
        "meta_mean_motion_ddot": 0,
        "tle_line1": "1 66742U 25276CE  25353.65870801  .00003473  00000+0  17579-3 0  9998",
        "tle_line2": "2 66742  97.4416  65.3075 0001364 204.1741 155.9429 15.17663919  3171"
      },
      "geometry": {
        "type": "Point",
        "coordinates": [
          -115.30323241439656,
          -8.341923847176227
        ]
      }
    },
    {
      "type": "Feature",
      "properties": {
        "norad_id": 66743,
        "name": "TRANSPORTER-15 CF",
        "group": "last-30-days",
        "lat": 9.085082800782189,
        "lon": -113.0150990157957,
        "alt_km": 515.349476835263,
        "timestamp": "2025-12-20T03:42:46.120153+00:00",
        "meta_object_name": "TRANSPORTER-15 CF",
        "meta_object_id": "2025-276CF",
        "meta_epoch": "2025-12-19T15:53:04.937280",
        "meta_mean_motion": 15.17467426,
        "meta_eccentricity": 4.33e-05,
        "meta_inclination": 97.4415,
        "meta_ra_of_asc_node": 65.3031,
        "meta_arg_of_pericenter": 269.9787,
        "meta_mean_anomaly": 90.1397,
        "meta_ephemeris_type": 0,
        "meta_classification_type": "U",
        "meta_norad_cat_id": 66743,
        "meta_element_set_no": 999,
        "meta_rev_at_epoch": 317,
        "meta_bstar": 0.00021278,
        "meta_mean_motion_dot": 4.194e-05,
        "meta_mean_motion_ddot": 0,
        "tle_line1": "1 66743U 25276CF  25353.66186270  .00004194  00000+0  21278-3 0  9992",
        "tle_line2": "2 66743  97.4415  65.3031 0000433 269.9787  90.1397 15.17467426  3177"
      },
      "geometry": {
        "type": "Point",
        "coordinates": [
          -113.0150990157957,
          9.085082800782189
        ]
      }
    }
  ]
}